ARIANE 40 R/B           
1 20443U 90005H   26012.17752708  .00000254  00000+0  94509-4 0  9996
2 20443  98.3199  74.4891 0010354  21.4230 338.7390 14.39824788884672
DELTA 2 R/B(1)          
1 20453U 90008B   26011.76665328  .00052116  00000+0  76844-3 0  9990
2 20453  35.6032 186.2100 0102632  92.1756 269.0733 15.48314385917286
COSMOS 2058             
1 20465U 90010A   26012.29422738  .00003646  00000+0  21765-3 0  9997
2 20465  82.4689 102.9757 0010244 163.5593 196.5972 15.10798865933723
SL-14 R/B               
1 20466U 90010B   26012.30050407  .00000486  00000+0  55948-4 0  9990
2 20466  82.5041 320.3462 0021117 123.1511 237.1734 14.83507354920127
SL-14 R/B               
1 20511U 90018B   26012.12892643  .00000448  00000+0  53398-4 0  9990
2 20511  82.5216 275.9642 0014922 279.5033  80.4495 14.82084180914209
HST                     
1 20580U 90037B   26012.28810262  .00007324  00000+0  24855-3 0  9996
2 20580  28.4671  64.4829 0002040 194.5967 165.4569 15.28511891764672
SL-16 R/B               
1 20625U 90046B   26012.28503376  .00000185  00000+0  12000-3 0  9998
2 20625  70.9998  56.3730 0013237  21.2261 338.9408 14.15006642840414
COSMOS 2084             
1 20663U 90055A   26011.93014226  .00003276  00000+0  24065-3 0  9990
2 20663  62.7886 169.1070 0026612 179.2283 180.8863 15.05240015927778
SL-6 R/B(2)             
1 20666U 90055D   26012.30207544  .00001904  00000+0  15410-3 0  9992
2 20666  62.7837  85.5568 0016624 327.5232  32.4843 15.03256286929715
SL-8 R/B                
1 20775U 90078B   26012.29234569  .00016495  00000+0  50111-3 0  9991
2 20775  82.9056 301.9434 0368823 203.0257 155.4066 14.87017935800916
SL-8 R/B                
1 21088U 91006B   26012.05080008 -.00000019  00000+0 -34934-4 0  9995
2 21088  82.9407 212.1653 0022169 191.0126 282.0013 13.77492430756274
OKEAN-3                 
1 21397U 91039A   26012.14894808  .00002786  00000+0  19744-3 0  9997
2 21397  82.5163  31.6050 0015270 157.3643 202.8261 15.04340279856531
COSMOS 2151             
1 21422U 91042A   26012.31403541  .00001832  00000+0  14567-3 0  9998
2 21422  82.4978 138.0383 0011304 247.2610 112.7420 14.99841696854740
SL-14 R/B               
1 21423U 91042B   26012.17014205  .00000432  00000+0  51646-4 0  9993
2 21423  82.4931 273.1913 0018521  68.6212 291.6976 14.81772682844708
ERS-1                   
1 21574U 91050A   26012.04505812  .00000351  00000+0  12705-3 0  9996
2 21574  98.7899  28.8571 0032169  12.2716 347.9247 14.39394366807584
ARIANE 40 R/B           
1 21610U 91050F   26012.16127071  .00000319  00000+0  10811-3 0  9997
2 21610  98.2122  66.4877 0002181 229.9686 130.1313 14.42842911810847
INTERCOSMOS 25          
1 21819U 91086A   26012.26588389  .00001535  00000+0  30481-3 0  9997
2 21819  82.6085 344.1102 1485972 238.5528 106.1927 12.11849649489851
SL-8 R/B                
1 21876U 92008B   26012.31460933  .00000085  00000+0  71977-4 0  9990
2 21876  82.9288 309.7072 0033494 293.3670 232.9344 13.75965960701662
SL-8 R/B                
1 21938U 92020B   26012.03971692  .00000180  00000+0  17013-3 0  9997
2 21938  82.9292 195.8162 0030237  95.8034  22.5252 13.75536957693347
USA 81                  
1 21949U 92023A   26011.93385518  .00000229  00000+0  77537-4 0  9998
2 21949  85.0098 164.1632 0001548 117.1060 243.0291 14.32341397 86668
COSMOS 2219             
1 22219U 92076A   26011.71795209  .00000085  00000+0  69097-4 0  9997
2 22219  71.0616 137.1671 0020528 285.6721  74.2136 14.14081111710321
SL-16 R/B               
1 22220U 92076B   26012.23726505  .00000264  00000+0  15565-3 0  9999
2 22220  71.0015 307.2895 0013123 191.4911 335.0842 14.16848280713833
COSMOS 2221             
1 22236U 92080A   26012.25466273  .00002103  00000+0  18522-3 0  9996
2 22236  82.5057 333.1149 0015433  28.7142 331.4926 14.95919470772359
SL-16 R/B               
1 22285U 92093B   26012.27389639  .00000225  00000+0  13972-3 0  9993
2 22285  71.0218 122.7001 0003518   2.1201 357.9937 14.15435406705172
COSMOS 2228             
1 22286U 92094A   26012.24102233  .00002520  00000+0  21656-3 0  9993
2 22286  82.5190 291.3506 0019202 128.0295 232.2664 14.96902298767616
SL-16 R/B               
1 22566U 93016B   26012.30866429 -.00000225  00000+0 -91196-4 0  9999
2 22566  71.0089 333.5990 0008558  38.1575 322.0152 14.15294407694196
COSMOS 2242             
1 22626U 93024A   26012.26621791  .00002479  00000+0  21662-3 0  9992
2 22626  82.5207 320.6657 0017610 130.5917 229.6841 14.96266017771957
SL-16 R/B               
1 22803U 93059B   26012.01174727  .00000179  00000+0  11255-3 0  9994
2 22803  70.9906 130.6517 0019273 293.4819  66.4279 14.17219552671509
ARIANE 40 R/B           
1 22830U 93061H   26012.13524598  .00000229  00000+0  99738-4 0  9994
2 22830  98.5030  82.1058 0011828  92.3942 267.8596 14.32824662686006
COSMOS 2278             
1 23087U 94023A   26012.23054134  .00000292  00000+0  17734-3 0  9998
2 23087  71.0550 293.2192 0006855 123.0079 237.1703 14.14362852636828
SL-16 R/B               
1 23088U 94023B   26011.94917884  .00000330  00000+0  19519-3 0  9992
2 23088  70.9984 190.0452 0003087 343.7913  16.3110 14.15004062638067
SL-16 R/B               
1 23343U 94074B   26012.11417440  .00000506  00000+0  74595-4 0  9996
2 23343  97.7175  45.2072 0007713  53.4922  13.5646 14.79331254678887
SL-16 R/B               
1 23405U 94077B   26012.30625825  .00000292  00000+0  17387-3 0  9994
2 23405  70.9833 111.1111 0004794 259.1928 100.8655 14.15553417608255
ARIANE 40+ R/B          
1 23561U 95021B   26012.17570333  .00000301  00000+0  11022-3 0  9996
2 23561  98.4608  84.3917 0005867 317.8495  96.5835 14.39723113611119
SL-16 R/B               
1 23705U 95058B   26012.23978597  .00000108  00000+0  79475-4 0  9999
2 23705  71.0229 298.7701 0013790 214.6182 145.4044 14.15489825559860
SL-16 R/B               
1 24298U 96051B   26012.22540346  .00000010  00000+0  32115-4 0  9999
2 24298  70.7597 294.7553 0019093 223.8430 136.1175 14.12400565513675
ORBVIEW 2 (SEASTAR)     
1 24883U 97037A   26012.30677743  .00000269  00000+0  10981-3 0  9997
2 24883  98.8477 175.1551 0001700 202.3082 157.8029 14.35444002500385
SL-16 R/B               
1 25400U 98043G   26011.82877150  .00000063  00000+0  45101-4 0  9996
2 25400  98.8165 324.8218 0009869 173.3211 186.8102 14.26034032430882
SL-16 R/B               
1 25407U 98045B   26012.20783894 -.00000067  00000+0 -97352-5 0  9991
2 25407  71.0121 300.3534 0005348 121.6684 238.4962 14.16180055419108
ISS (ZARYA)             
1 25544U 98067A   26012.17690827  .00009276  00000+0  17471-3 0  9997
2 25544  51.6333 351.7881 0007723   8.9804 351.1321 15.49250518547578
CZ-4B R/B               
1 25732U 99025C   26012.07747347  .00000063  00000+0  50986-4 0  9994
2 25732  98.6728  57.6726 0037749 146.5040 234.3048 14.18251925380142
OKEAN-O                 
1 25860U 99039A   26012.14194815  .00000843  00000+0  11770-3 0  9998
2 25860  97.9558  72.5747 0001628 109.7955 250.3433 14.80224469426025
SL-16 R/B               
1 25861U 99039B   26012.17544692  .00000607  00000+0  83866-4 0  9998
2 25861  98.0082  71.3223 0016160  81.8664 278.4381 14.81639021428491
DELTA 2 R/B             
1 25876U 99041E   26011.94743170  .00003318  00000+0  57088-3 0  9991
2 25876  51.7602 167.8505 0503734 180.8085 179.2082 14.11536707355013
HELIOS 1B               
1 25977U 99064A   26012.27880628  .00001935  00000+0  22026-3 0  9992
2 25977  98.1743 272.8519 0000469 126.1753 233.9506 14.87432608676877
TERRA                   
1 25994U 99068A   26012.28169174  .00000463  00000+0  10354-3 0  9998
2 25994  97.9706  67.8387 0002543  30.7402  33.7310 14.60942533386841
SL-16 R/B               
1 26070U 00006B   26011.99658487 -.00000221  00000+0 -87767-4 0  9992
2 26070  71.0007 217.0401 0018997 268.2015  91.6932 14.15814971340531
TITAN 4B R/B            
1 26474U 00047B   26012.23505692  .00003695  00000+0  23765-3 0  9995
2 26474  67.9878 199.1933 0037140 106.6366 253.8867 15.09036534384390
ENVISAT                 
1 27386U 02009A   26012.31124617  .00000125  00000+0  54425-4 0  9994
2 27386  98.3641 327.2837 0001135  91.8011  72.6231 14.39012692251063
IDEFIX & ARIANE 42P R/B 
1 27422U 02021B   26012.27939010  .00000290  00000+0  12693-3 0  9998
2 27422  98.5816 311.5795 0011896 359.3134   0.8031 14.30977669235958
AQUA                    
1 27424U 02022A   26012.29577270  .00001027  00000+0  21555-3 0  9995
2 27424  98.4078 338.6778 0002034  81.5885  29.6294 14.61817302260499
CZ-4B R/B               
1 27432U 02024C   26012.12387882  .00000038  00000+0  42702-4 0  9995
2 27432  98.8954  65.7830 0050171 182.5909 197.0876 14.14535234221241
MIDORI II (ADEOS-II)    
1 27597U 02056A   26012.30891778  .00000308  00000+0  13890-3 0  9991
2 27597  98.7677 330.4326 0001596 122.4104 237.7232 14.29233723202244
H-2A R/B                
1 27601U 02056E   26012.33856939  .00000358  00000+0  14025-3 0  9996
2 27601  98.3107 334.8847 0069763 330.4575 193.7143 14.33709885206038
CZ-4B R/B               
1 28059U 03049C   26011.99287841  .00000484  00000+0  12244-3 0  9999
2 28059  98.6813   4.7040 0049070  45.6871 314.8333 14.54946113178354
CZ-2C R/B               
1 28222U 04012C   26012.14235662  .00047201  00000+0  61921-3 0  9998
2 28222  97.7371  72.3267 0016944 155.8548 204.3505 15.58243804195452
SL-16 R/B               
1 28353U 04021B   26012.31108934  .00000084  00000+0  68485-4 0  9994
2 28353  71.0027 350.8071 0003278 149.0541 211.0775 14.14592335114868
CZ-4B R/B               
1 28415U 04035C   26012.08549695  .00009268  00000+0  33684-3 0  9990
2 28415  97.3581  47.0308 0033184 166.6397 193.5729 15.27963190171260
CZ-2C R/B               
1 28480U 04046B   26012.18016250  .00000230  00000+0  10129-3 0  9990
2 28480  98.2000 290.6694 0138806 322.4399  36.7148 14.26964822100449
